OBJECT_NAME,OBJECT_ID,EPOCH,MEAN_MOTION,ECCENTRICITY,INCLINATION,RA_OF_ASC_NODE,ARG_OF_PERICENTER,MEAN_ANOMALY,EPHEMERIS_TYPE,CLASSIFICATION_TYPE,NORAD_CAT_ID,ELEMENT_SET_NO,REV_AT_EPOCH,BSTAR,MEAN_MOTION_DOT,MEAN_MOTION_DDOT
STARLINK-37577,2026-127K,2026-07-07T04:36:24.707232,15.75244638,.00015931,53.1608,162.5686,53.1091,307.0076,0,U,69452,999,456,.96440527E-3,.149876E-2,0
STARLINK-37500,2026-127L,2026-07-07T09:24:02.344320,15.75251591,.00011167,53.1563,161.6823,100.1671,259.9476,0,U,69453,999,459,.11949312E-2,.18673E-2,0
STARLINK-37575,2026-127M,2026-07-07T10:35:47.616576,15.75259275,.00011501,53.1597,161.2784,135.7413,224.3699,0,U,69454,999,460,.1332809E-2,.208974E-2,0
STARLINK-37642,2026-127N,2026-07-07T12:33:17.815104,15.75245465,.00004687,53.1570,161.0831,93.0801,267.0273,0,U,69455,999,461,.11859537E-2,.185243E-2,0
STARLINK-37513,2026-127P,2026-07-07T14:00:01.999872,15.75259692,.00007816,53.1591,160.1456,81.6295,211.1457,0,U,69456,999,592,-.52296127E-3,-.80116E-3,0
STARLINK-37563,2026-127Q,2026-07-07T07:39:36.956736,15.75309880,.00029048,53.1593,161.9384,53.1462,306.9824,0,U,69457,999,458,.16597726E-2,.262669E-2,0
STARLINK-37565,2026-127R,2026-07-07T10:28:47.149248,15.75255687,.00011755,53.1583,161.2436,113.5059,246.6085,0,U,69458,999,460,.14324916E-2,.225049E-2,0
STARLINK-37498,2026-127S,2026-07-07T10:54:55.664352,15.75258177,.00010232,53.1569,161.3641,92.1902,267.9235,0,U,69459,999,460,.13091254E-2,.205146E-2,0
STARLINK-37384,2026-127T,2026-07-07T07:32:36.155040,15.75296523,.00017279,53.1595,161.9053,66.9437,293.1765,0,U,69460,999,458,.13433226E-2,.211023E-2,0
STARLINK-37707,2026-127U,2026-07-07T07:26:32.119872,15.75271174,.00013535,53.1592,161.8759,75.4847,284.6323,0,U,69461,999,458,.91122325E-3,.1416E-2,0
STARLINK-37525,2026-127V,2026-07-07T11:53:36.596544,15.75254531,.00010115,53.1573,160.8983,127.4464,232.6648,0,U,69462,999,461,.95930991E-3,.149131E-2,0
STARLINK-37526,2026-127W,2026-07-07T07:13:27.990624,15.75304662,.00016391,53.1569,161.8133,68.8314,291.2881,0,U,69463,999,458,.15675266E-2,.247515E-2,0
STARLINK-37574,2026-127X,2026-07-07T11:54:05.076576,15.75294861,.00016511,53.1574,160.8984,55.6685,304.4491,0,U,69464,999,461,.87253196E-3,.135606E-2,0
STARLINK-37535,2026-127Y,2026-07-06T23:36:10.773792,15.75260762,.00015172,53.1566,163.3879,52.9413,307.1745,0,U,69465,999,453,.92244188E-3,.143316E-2,0
STARLINK-37583,2026-127Z,2026-07-07T12:39:41.720544,15.75270235,.00011181,53.1585,160.3716,87.1389,272.9759,0,U,69466,999,462,.88780905E-3,.137878E-2,0
STARLINK-37546,2026-127AA,2026-07-07T11:41:00.688992,15.75259490,.00008424,53.1562,160.8359,107.0907,253.0206,0,U,69467,999,461,.49509131E-3,.76004E-3,0
STARLINK-37532,2026-127AB,2026-07-07T09:17:21.835392,15.75251754,.00011629,53.1597,160.9095,99.3883,260.7268,0,U,69468,999,460,.13152736E-2,.206077E-2,0
STARLINK-37708,2026-127AC,2026-07-06T12:50:05.816256,15.75304051,.00008714,53.1572,165.5607,120.5281,239.5825,0,U,69469,999,446,.1181746E-2,.18505E-2,0
STARLINK-37686,2026-127AD,2026-07-07T13:05:50.792928,15.75456831,.00015336,53.1579,160.4890,24.0535,336.0557,0,U,69470,999,462,.14893777E-2,.236397E-2,0
STARLINK-37451,2026-127AE,2026-07-07T07:07:27.124608,15.80922130,.00012396,53.1578,161.0455,69.4775,290.6380,0,U,69471,999,459,.70135291E-3,.140314E-2,0
DTC TEST OBJECT A,2026-128A,2026-07-07T11:23:11.348160,15.53443666,.00107697,55.0005,211.3867,350.9926,9.0914,0,U,69472,999,438,.1343893E-3,.8209E-4,0
DTC TEST OBJECT B,2026-128B,2026-06-27T09:02:13.824960,15.56860342,.0009934,55.0021,257.9040,325.3113,34.7274,0,U,69473,999,280,.3356545E-3,.24134E-3,0
TJS-25,2026-129A,2026-07-07T09:11:02.452128,1.00267530,.00029316,5.9625,330.2964,282.9972,290.0234,0,U,69474,999,26,0,-.355E-5,0
STARLINK-37816,2026-131A,2026-07-07T14:00:01.999872,15.73322456,.00013958,97.2847,210.0346,81.9642,325.4804,0,U,69478,999,528,-.19794256E-1,-.2352298E-1,0
STARLINK-37878,2026-131B,2026-07-07T13:51:25.663104,15.80318735,.00043808,97.2848,210.0248,342.2511,17.8604,0,U,69479,999,538,.10449743E-2,.200179E-2,0
STARLINK-37817,2026-131C,2026-07-07T00:00:28.443744,15.80951429,.00010584,97.2843,209.4321,136.5615,223.5737,0,U,69480,999,529,.16094205E-2,.321772E-2,0
STARLINK-37727,2026-131D,2026-07-07T14:00:01.999872,15.73065855,.00014419,97.2847,210.0395,83.2947,336.0031,0,U,69481,999,528,-.20543974E-1,-.2405442E-1,0
STARLINK-37814,2026-131E,2026-07-07T10:36:31.651200,15.80622991,.00025358,97.2861,209.9034,265.1305,94.9674,0,U,69482,999,536,.90307335E-3,.174819E-2,0
STARLINK-37869,2026-131F,2026-07-07T14:00:01.999872,15.76098210,.00016492,97.2848,210.0507,62.1078,18.5175,0,U,69483,999,528,-.18286126E-1,-.2438765E-1,0
STARLINK-37873,2026-131G,2026-07-07T14:00:01.999872,15.77083927,.00016283,97.2841,210.0525,84.9568,3.1186,0,U,69484,999,528,-.17409978E-1,-.2427896E-1,0
